{
    "links": {
        "self": "http://www.neowsapp.com/rest/v1/neo/3674179?api_key=iIulBulltgU6a56xZRHN4H3l9WmuAYTsLGpBGhQ2"
    },
    "id": "3674179",
    "neo_reference_id": "3674179",
    "name": "(2014 MV41)",
    "designation": "2014 MV41",
    "nasa_jpl_url": "http://ssd.jpl.nasa.gov/sbdb.cgi?sstr=3674179",
    "absolute_magnitude_h": 24.1,
    "estimated_diameter": {
        "kilometers": {
            "estimated_diameter_min": 0.040230458,
            "estimated_diameter_max": 0.0899580388
        },
        "meters": {
            "estimated_diameter_min": 40.2304579834,
            "estimated_diameter_max": 89.9580388169
        },
        "miles": {
            "estimated_diameter_min": 0.0249980399,
            "estimated_diameter_max": 0.0558973165
        },
        "feet": {
            "estimated_diameter_min": 131.9896957704,
            "estimated_diameter_max": 295.1379320721
        }
    },
    "is_potentially_hazardous_asteroid": false,
    "close_approach_data": [
        {
            "close_approach_date": "2014-07-17",
            "close_approach_date_full": "2014-Jul-17 03:37",
            "epoch_date_close_approach": 1405568220000,
            "relative_velocity": {
                "kilometers_per_second": "14.0142371008",
                "kilometers_per_hour": "50451.2535628976",
                "miles_per_hour": "31348.4469707905"
            },
            "miss_distance": {
                "astronomical": "0.0272429035",
                "lunar": "10.5974894615",
                "kilometers": "4075480.336215545",
                "miles": "2532386.052622721"
            },
            "orbiting_body": "Earth"
        },
        {
            "close_approach_date": "2159-07-23",
            "close_approach_date_full": "2159-Jul-23 06:16",
            "epoch_date_close_approach": 5981840160000,
            "relative_velocity": {
                "kilometers_per_second": "13.2212452347",
                "kilometers_per_hour": "47596.48284496",
                "miles_per_hour": "29574.6034655253"
            },
            "miss_distance": {
                "astronomical": "0.0507082899",
                "lunar": "19.7255247711",
                "kilometers": "7585852.160382513",
                "miles": "4713629.9585361594"
            },
            "orbiting_body": "Earth"
        }
    ],
    "orbital_data": {
        "orbit_id": "8",
        "orbit_determination_date": "2017-04-06 08:39:51",
        "first_observation_date": "2014-06-29",
        "last_observation_date": "2014-07-13",
        "data_arc_in_days": 14,
        "observations_used": 23,
        "orbit_uncertainty": "8",
        "minimum_orbit_intersection": ".0170433",
        "jupiter_tisserand_invariant": "3.500",
        "epoch_osculation": "2456839.5",
        "eccentricity": ".602284652448951",
        "semi_major_axis": "2.082723048370592",
        "inclination": "7.327460202859414",
        "ascending_node_longitude": "119.2649872109404",
        "orbital_period": "1097.856838969044",
        "perihelion_distance": ".82833092103529",
        "perihelion_argument": "231.5245387228132",
        "aphelion_distance": "3.337115175705893",
        "perihelion_time": "2456895.504513536403",
        "mean_anomaly": "341.6354699834652",
        "mean_motion": ".3279116067064469",
        "equinox": "J2000",
        "orbit_class": {
            "orbit_class_type": "APO",
            "orbit_class_description": "Near-Earth asteroid orbits which cross the Earth’s orbit similar to that of 1862 Apollo",
            "orbit_class_range": "a (semi-major axis) > 1.0 AU; q (perihelion) < 1.017 AU"
        }
    },
    "is_sentry_object": false
}